{
    "links": {
        "self": "http://www.neowsapp.com/rest/v1/neo/3712471?api_key=iIulBulltgU6a56xZRHN4H3l9WmuAYTsLGpBGhQ2"
    },
    "id": "3712471",
    "neo_reference_id": "3712471",
    "name": "(2015 DG198)",
    "designation": "2015 DG198",
    "nasa_jpl_url": "http://ssd.jpl.nasa.gov/sbdb.cgi?sstr=3712471",
    "absolute_magnitude_h": 24.3,
    "estimated_diameter": {
        "kilometers": {
            "estimated_diameter_min": 0.0366906138,
            "estimated_diameter_max": 0.0820427065
        },
        "meters": {
            "estimated_diameter_min": 36.6906137531,
            "estimated_diameter_max": 82.0427064882
        },
        "miles": {
            "estimated_diameter_min": 0.0227984834,
            "estimated_diameter_max": 0.0509789586
        },
        "feet": {
            "estimated_diameter_min": 120.3760332259,
            "estimated_diameter_max": 269.1689931548
        }
    },
    "is_potentially_hazardous_asteroid": false,
    "close_approach_data": [
        {
            "close_approach_date": "1901-03-04",
            "close_approach_date_full": "1901-Mar-04 00:33",
            "epoch_date_close_approach": -2172094020000,
            "relative_velocity": {
                "kilometers_per_second": "9.6828159067",
                "kilometers_per_hour": "34858.1372640963",
                "miles_per_hour": "21659.4909016825"
            },
            "miss_distance": {
                "astronomical": "0.1816000491",
                "lunar": "70.6424190999",
                "kilometers": "27166980.537255417",
                "miles": "16880778.9337300746"
            },
            "orbiting_body": "Earth"
        },
        {
            "close_approach_date": "1912-02-19",
            "close_approach_date_full": "1912-Feb-19 08:02",
            "epoch_date_close_approach": -1826121480000,
            "relative_velocity": {
                "kilometers_per_second": "16.1153173561",
                "kilometers_per_hour": "58015.142482037",
                "miles_per_hour": "36048.353393908"
            },
            "miss_distance": {
                "astronomical": "0.408958404",
                "lunar": "159.084819156",
                "kilometers": "61179306.15699948",
                "miles": "38015058.064293624"
            },
            "orbiting_body": "Earth"
        },
        {
            "close_approach_date": "2015-03-15",
            "close_approach_date_full": "2015-Mar-15 21:06",
            "epoch_date_close_approach": 1426453560000,
            "relative_velocity": {
                "kilometers_per_second": "6.7760768921",
                "kilometers_per_hour": "24393.8768113981",
                "miles_per_hour": "15157.4063998379"
            },
            "miss_distance": {
                "astronomical": "0.0824216604",
                "lunar": "32.0620258956",
                "kilometers": "12330104.837703348",
                "miles": "7661571.8743402824"
            },
            "orbiting_body": "Earth"
        },
        {
            "close_approach_date": "2026-02-24",
            "close_approach_date_full": "2026-Feb-24 13:47",
            "epoch_date_close_approach": 1771940820000,
            "relative_velocity": {
                "kilometers_per_second": "13.7010967922",
                "kilometers_per_hour": "49323.9484519841",
                "miles_per_hour": "30647.983414512"
            },
            "miss_distance": {
                "astronomical": "0.3231522547",
                "lunar": "125.7062270783",
                "kilometers": "48342888.988817489",
                "miles": "30038878.2963557882"
            },
            "orbiting_body": "Earth"
        }
    ],
    "orbital_data": {
        "orbit_id": "9",
        "orbit_determination_date": "2017-04-06 08:35:25",
        "first_observation_date": "2015-02-23",
        "last_observation_date": "2015-04-24",
        "data_arc_in_days": 60,
        "observations_used": 30,
        "orbit_uncertainty": "7",
        "minimum_orbit_intersection": ".0700374",
        "jupiter_tisserand_invariant": "4.131",
        "epoch_osculation": "2459000.5",
        "eccentricity": ".3744810185908888",
        "semi_major_axis": "1.6869934110312",
        "inclination": "7.636944793247881",
        "ascending_node_longitude": "166.8763129713953",
        "orbital_period": "800.3289124840873",
        "perihelion_distance": "1.055246400112118",
        "perihelion_argument": "22.38270927539688",
        "aphelion_distance": "2.318740421950282",
        "perihelion_time": "2458709.823530094512",
        "mean_anomaly": "130.7506545542379",
        "mean_motion": ".4498150627629084",
        "equinox": "J2000",
        "orbit_class": {
            "orbit_class_type": "AMO",
            "orbit_class_description": "Near-Earth asteroid orbits similar to that of 1221 Amor",
            "orbit_class_range": "1.017 AU < q (perihelion) < 1.3 AU"
        }
    },
    "is_sentry_object": false
}